id,street,country,zip,city,state,created_at,modified_at,created_by,modified_by
1,123 Main St,USA,12345,New York,NY,2025-03-30 12:00:00,2025-03-30 12:00:00,server,server
2,456 Elm St,USA,67890,Los Angeles,CA,2025-03-30 12:00:00,2025-03-30 12:00:00,server,server
3,789 Oak St,USA,11223,Chicago,IL,2025-03-30 12:00:00,2025-03-30 12:00:00,server,server
4,101 Pine St,USA,44556,Houston,TX,2025-03-30 12:00:00,2025-03-30 12:00:00,server,server
5,202 Maple St,USA,77889,Phoenix,AZ,2025-03-30 12:00:00,2025-03-30 12:00:00,server,server
6,303 Cedar St,USA,99001,Philadelphia,PA,2025-03-30 12:00:00,2025-03-30 12:00:00,server,server
7,404 Birch St,USA,22334,San Antonio,TX,2025-03-30 12:00:00,2025-03-30 12:00:00,server,server
8,505 Walnut St,USA,55667,San Diego,CA,2025-03-30 12:00:00,2025-03-30 12:00:00,server,server
9,606 Chestnut St,USA,88990,Dallas,TX,2025-03-30 12:00:00,2025-03-30 12:00:00,server,server
10,707 Spruce St,USA,11212,San Jose,CA,2025-03-30 12:00:00,2025-03-30 12:00:00,server,server
11,808 Fir St,USA,33445,Austin,TX,2025-03-30 12:00:00,2025-03-30 12:00:00,server,server
12,909 Redwood St,USA,66778,Jacksonville,FL,2025-03-30 12:00:00,2025-03-30 12:00:00,server,server
13,1010 Palm St,USA,99001,Fort Worth,TX,2025-03-30 12:00:00,2025-03-30 12:00:00,server,server
14,1111 Cypress St,USA,22334,Columbus,OH,2025-03-30 12:00:00,2025-03-30 12:00:00,server,server
15,1212 Willow St,USA,55667,Charlotte,NC,2025-03-30 12:00:00,2025-03-30 12:00:00,server,server
16,1313 Poplar St,USA,88990,San Francisco,CA,2025-03-30 12:00:00,2025-03-30 12:00:00,server,server
17,1414 Ash St,USA,11212,Indianapolis,IN,2025-03-30 12:00:00,2025-03-30 12:00:00,server,server
18,1515 Beech St,USA,33445,Seattle,WA,2025-03-30 12:00:00,2025-03-30 12:00:00,server,server
19,1616 Magnolia St,USA,66778,Denver,CO,2025-03-30 12:00:00,2025-03-30 12:00:00,server,server
20,1717 Dogwood St,USA,99001,Washington,DC,2025-03-30 12:00:00,2025-03-30 12:00:00,server,server
21,1818 Hickory St,USA,22334,Boston,MA,2025-03-30 12:00:00,2025-03-30 12:00:00,server,server
22,1919 Sycamore St,USA,55667,El Paso,TX,2025-03-30 12:00:00,2025-03-30 12:00:00,server,server
23,2020 Linden St,USA,88990,Detroit,MI,2025-03-30 12:00:00,2025-03-30 12:00:00,server,server
24,2121 Alder St,USA,11212,Nashville,TN,2025-03-30 12:00:00,2025-03-30 12:00:00,server,server
25,2222 Hawthorn St,USA,33445,Memphis,TN,2025-03-30 12:00:00,2025-03-30 12:00:00,server,server
26,2323 Juniper St,USA,66778,Portland,OR,2025-03-30 12:00:00,2025-03-30 12:00:00,server,server
27,2424 Sequoia St,USA,99001,Oklahoma City,OK,2025-03-30 12:00:00,2025-03-30 12:00:00,server,server
28,2525 Cedar St,USA,22334,Las Vegas,NV,2025-03-30 12:00:00,2025-03-30 12:00:00,server,server
29,2626 Birch St,USA,55667,Louisville,KY,2025-03-30 12:00:00,2025-03-30 12:00:00,server,server
30,2727 Walnut St,USA,88990,Baltimore,MD,2025-03-30 12:00:00,2025-03-30 12:00:00,server,server
31,2828 Chestnut St,USA,11212,Milwaukee,WI,2025-03-30 12:00:00,2025-03-30 12:00:00,server,server
32,2929 Spruce St,USA,33445,Albuquerque,NM,2025-03-30 12:00:00,2025-03-30 12:00:00,server,server
33,3030 Fir St,USA,66778,Tucson,AZ,2025-03-30 12:00:00,2025-03-30 12:00:00,server,server
34,3131 Redwood St,USA,99001,Fresno,CA,2025-03-30 12:00:00,2025-03-30 12:00:00,server,server
35,3232 Palm St,USA,22334,Sacramento,CA,2025-03-30 12:00:00,2025-03-30 12:00:00,server,server
36,3333 Cypress St,USA,55667,Kansas City,MO,2025-03-30 12:00:00,2025-03-30 12:00:00,server,server
37,3434 Willow St,USA,88990,Long Beach,CA,2025-03-30 12:00:00,2025-03-30 12:00:00,server,server
38,3535 Poplar St,USA,11212,Mesa,AZ,2025-03-30 12:00:00,2025-03-30 12:00:00,server,server
39,3636 Ash St,USA,33445,Atlanta,GA,2025-03-30 12:00:00,2025-03-30 12:00:00,server,server
40,3737 Beech St,USA,66778,Omaha,NE,2025-03-30 12:00:00,2025-03-30 12:00:00,server,server
41,3838 Magnolia St,USA,99001,Colorado Springs,CO,2025-03-30 12:00:00,2025-03-30 12:00:00,server,server
42,3939 Dogwood St,USA,22334,Raleigh,NC,2025-03-30 12:00:00,2025-03-30 12:00:00,server,server
43,4040 Hickory St,USA,55667,Miami,FL,2025-03-30 12:00:00,2025-03-30 12:00:00,server,server
44,4141 Sycamore St,USA,88990,Virginia Beach,VA,2025-03-30 12:00:00,2025-03-30 12:00:00,server,server
45,4242 Linden St,USA,11212,Oakland,CA,2025-03-30 12:00:00,2025-03-30 12:00:00,server,server
46,4343 Alder St,USA,33445,Minneapolis,MN,2025-03-30 12:00:00,2025-03-30 12:00:00,server,server
47,4444 Hawthorn St,USA,66778,Tulsa,OK,2025-03-30 12:00:00,2025-03-30 12:00:00,server,server
48,4545 Juniper St,USA,99001,Arlington,TX,2025-03-30 12:00:00,2025-03-30 12:00:00,server,server
49,4646 Sequoia St,USA,22334,New Orleans,LA,2025-03-30 12:00:00,2025-03-30 12:00:00,server,server
50,4747 Cedar St,USA,55667,Wichita,KS,2025-03-30 12:00:00,2025-03-30 12:00:00,server,server